enterprise_number,street,house_number,box,zipcode,city,country
0400003551,Rue de la Goëtte,85,,1420,Braine-l'Alleud,België
0400008697,Solleveld,17,,9550,Herzele,België
0400008994,Stokstraat(KRU),14,,9770,Kruisem,België
0400033047,Oude Eedstraat,3A,,9810,Nazareth,België
0400063434,Watlingtonstraat,7,,9000,Gent,België
0400071550,Spinnerijstraat(Kor),99,22,8500,Kortrijk,België
0400071649,Venecoweg,14A,,9810,Nazareth,België
0400077686,Venecolaan,52J,,9880,Aalter,België
0400078973,Oudstrijderslei,18,,2930,Brasschaat,België
0400082042,Rederskaai,61,.0301,8380,Brugge,België
0400084220,Z. 5 Mollem,170,,1730,Asse,België
0400085606,Lindestraat,13,,9240,Zele,België
0400089465,Zeilschipstraat,9,,9000,Gent,België
0400095801,Foreestelaan,86,201,9000,Gent,België
0400100848,Knippegroen,40,,9042,Gent,België
0400136876,Industriepark,4,B,9820,Merelbeke,België
0400152615,Brusselsesteenweg,69,/101,9090,Melle,België
0400156177,Oeverstraat,6,,9160,Lokeren,België
0400177260,Langestraat,30,,9240,Zele,België
0400289108,Dokter André Goffaertsstraat,5,,9300,Aalst,België
0400320384,Katstraat,22,,9340,Lede,België
0400348001,Waterloosesteenweg,1135,,1180,Ukkel,België
0400359184,Rue Dury (Emile),226,,1410,Waterloo,België
0400361263,Rue de l'Industrie,6,,1301,Wavre,België
0400371656,Hamoirlaan,10,,1180,Ukkel,België
0400379079,LAR Blok Z (Aal),5,,8511,Kortrijk,België
0400388680,Scheldedijk,30,,2070,Zwijndrecht,België
0400428470,Bischoffsheimlaan,33,,1000,Brussel,België
0400443120,Terhulpsesteenweg,185,,1170,Watermaal-Bosvoorde,België
0400456184,D'Herbouvillekaai,80,,2020,Antwerpen,België
0400464795,Edmond Van Nieuwenhuyselaan,30,,1160,Oudergem,België
0400467666,Avenue Landas,24,,1480,Tubize,België
0400469646,Sint Lendriksborre,7,,1120,Brussel,België
0400471428,Groenkraaglaan,1,,1170,Watermaal-Bosvoorde,België
0400473705,Scheldedijk,30,,2070,Zwijndrecht,België
0400475386,Ringlaan,108,,1180,Ukkel,België
0400481821,Sint-Denijsstraat,132,,1190,Vorst,België
0400484591,Guido Gezellestraat,123,,1654,Beersel,België
0400504288,Steenwinkelstraat,640,,2627,Schelle,België
0400552788,Dageraadstraat,44,,1000,Brussel,België
0400582581,Edouard Faesstraat,20,22,1090,Jette,België
0400695617,Excelsiorlaan,1,4,1930,Zaventem,België
0400840919,Meensesteenweg,608,,8800,Roeselare,België
0400841909,Putsesteenweg,319,,2820,Bonheiden,België
0400845669,Industriepark,17,,2220,Heist-op-den-Berg,België
0400852104,Belcrownlaan,18,,2100,Antwerpen,België
0400853587,Simon De Heuvellaan,8,,2110,Wijnegem,België
0400865762,Haltstraat,53,,3900,Pelt,België
0400929308,Genkersteenweg,195,1.01,3500,Hasselt,België
0400936236,Jagersborgweg,1007,,3680,Maaseik,België
0400950389,Grijpenveldstraat,20,,3300,Tienen,België
0400957814,Industriezone Schurhovenveld,4044,,3800,Sint-Truiden,België
0400958408,Prinsenweg,3,,3700,Tongeren,België
0400983152,Europaweg,11,,3560,Lummen,België
0400987508,Meldertsestraat,8,,3545,Halen,België
0401006611,Karperstraat,5,,9800,Deinze,België
0401006710,Tolpoortstraat,63,,9800,Deinze,België
0401032048,Onteigeningsstraat,18,,9060,Zelzate,België
0401057881,Kaaistraat,21,,9900,Eeklo,België
0401077083,Tragel,60,,9308,Aalst,België
0401077182,Ambachtsweg,8,,2310,Rijkevorsel,België
0401094703,Pierstraat,14,,2630,Aartselaar,België
0401103413,Quai de la Darse,14,,6030,Charleroi,België
0401118160,Place des Alliés,8,,7000,Mons,België
0401155574,Chaussée de Maubeuge,449,,7022,Mons,België
0401157059,Rue du Halage,13,,1460,Ittre,België
0401164284,Rue Saint-Vincent,1,,7950,Chièvres,België
0401185367,Rue Lefébure E.(Haul),12,,7120,Estinnes,België
0401187644,Zilverstraat(E),37,,7850,Enghien,België
0401193879,Route de Mons-Maubeuge(HAV),41,,7041,Quévy,België
0401205955,Rue de Leuze,1,b,7950,Chièvres,België
0401212289,Rue des Mineurs(PER),25,,7134,Binche,België
0401282169,Rijksweg,841,,3650,Dilsen-Stokkem,België
0401282367,Diesterstraat,23,2.1,3500,Hasselt,België
0401289988,Laakstraat,53,,3582,Beringen,België
0401296423,Kolisstraat,1,,3670,Oudsbergen,België
0401302757,Scheepvaartkaai,4,,3500,Hasselt,België
0401307608,Genkersteenweg,243,,3500,Hasselt,België
0401317407,Siemenslaan,6C,,3650,Dilsen-Stokkem,België
0401335520,Heulentakstraat,10,,3650,Dilsen-Stokkem,België
0401352346,Kiewitstraat,182,A,3500,Hasselt,België
0401358977,Sint-Amandinastraat,35,,3970,Leopoldsburg,België
0401365907,Industrieweg,2073,,3520,Zonhoven,België
0401381149,"Lignières, Rue de Buzin",23,,6900,Marche-en-Famenne,België
0401405497,Chemin de la Vieille Sambre(ML),63,,5020,Namur,België
0401432718,Rue Forville,66,,4560,Clavier,België
0401470231,Rue de la Goëtte,85,,1420,Braine-l'Alleud,België
0401473793,Rue du Culot,29,,1495,Villers-la-Ville,België
0401483394,Avenue des Vallées,130,,1341,Ottignies-Louvain-la-Neuve,België
0401491710,Avenue Provinciale,85-87,,1341,Ottignies-Louvain-la-Neuve,België
0401492007,Rue Pré du Pont(Jod.),31,,1370,Jodoigne,België
0401506754,Nieuwewandeling,62,,9000,Gent,België
0401605140,Rue Sifride Demoulin(FAR),2,,6240,Farciennes,België
0401607318,Rue de la Vallée(NAL),87,,6120,Ham-sur-Heure-Nalinnes,België
0401636319,Rue Noël Sart-Culpart,44,,6060,Charleroi,België
0401664033,Rue Champeau,6,,6061,Charleroi,België
0401672248,Rue de Fontenelle(FAR),33,,6240,Farciennes,België
0401683136,Rue du Nord(CO),107,,6180,Courcelles,België
0401711345,Rue de Monceau Fontaine,44,,6031,Charleroi,België
0401722332,Rue de l'Aurore,2,A,6040,Charleroi,België
0401722926,Quai de la Darse,14,,6030,Charleroi,België
0401739950,Rue des Mineurs(PER),25,,7134,Binche,België
0401740742,Rue de Sartiau(THN),17,,6530,Thuin,België
0401743217,Avenue Vésale,13,,1300,Wavre,België
0401818144,Lieutenant Cottonstraat,15,,7880,Flobecq,België
0401860013,Kouterveldstraat,7A,1,1831,Machelen (Brab.),België
0401869713,Paapsemlaan,7,,1070,Anderlecht,België
0401901286,Koekelberglaan,56,,1082,Sint-Agatha-Berchem,België
0401902177,Weldoenersplein,7,,1030,Schaarbeek,België
0401903959,Nederokkerzeelsesteenweg,6,,3071,Kortenberg,België
0401962753,Rusatiralaan,8,,1083,Ganshoren,België
0401966317,Grote Markt,7,,2000,Antwerpen,België
0401998979,Edmond Picardstraat,9,10,1050,Elsene,België
0402010164,Alfons Gossetlaan,3,,1702,Dilbeek,België
0402031346,Bourgetlaan,44,,1130,Brussel,België
0402035997,Humaniteitslaan,247,,1620,Drogenbos,België
0402037086,Schietschijfstraat,64-68,,1030,Schaarbeek,België
0402043224,Pierre Biddaerstraat,28,,1070,Anderlecht,België
0402052231,Chaussée de Louvain,289,,1410,Waterloo,België
0402052825,Heideveld,58,,1651,Beersel,België
0402054409,Roodebeeklaan,24,,1030,Schaarbeek,België
0402141412,Avenue Reine Astrid,92,,1310,La Hulpe,België
0402146162,Elzeboomlaan,21,,1180,Ukkel,België
0402193573,Lambermontlaan,310,,1030,Schaarbeek,België
0402210795,Jan Van Rijswijcklaan,162/1,,2020,Antwerpen,België
0402273351,Rue de Messitert,3,,4880,Aubel,België
0402309775,Route du Village,82-84,,4821,Dison,België
0402355010,Rue de l'Arbre St-Michel,89,,4400,Flémalle,België
0402375301,Rue du Rond Point,243,,6060,Charleroi,België
0402387573,Rue des Awirs(AWR),270,,4400,Flémalle,België
0402404104,Avenue de l'Indépendance,83,,4020,Liège,België
0402408359,Rue des Grosses Pierres,17,C,4870,Trooz,België
0402421326,Boulevard d'Avroy,7/C,,4000,Liège,België
0402443595,Rue Grondal,14,,4890,Thimister-Clermont,België
0402458344,Rue Saint-Martin,6,,4841,Welkenraedt,België
0402508428,Drukpersstraat,4,,1000,Brussel,België
0402528323,Avenue Reine Elisabeth(BZ),16,,5000,Namur,België
0402557027,"Rue Alvaux, Biesme",5,,5640,Mettet,België
0402559502,"Rue de la Polissoire, Bos.",1,,5032,Gembloux,België
0402570982,"Rue de la Vallée, Hanzinelle",256,,5620,Florennes,België
0402604141,August De Boeckstraat,66,,1140,Evere,België
0402733112,Hoogveldstraat,12,,8020,Oostkamp,België
0402754391,Boterstraat,39,,8900,Ieper,België
0402755381,Breulstraat,111,,8890,Moorslede,België
0402771813,Zwaaikomstraat,34,,8800,Roeselare,België
0402784778,Hof ter Vleestdreef,1,,1070,Anderlecht,België
0402906029,Vanderaeylaan,51,,1180,Ukkel,België
0402935030,Franklin Rooseveltlaan,54,,1050,Brussel,België
0402937802,Edmond Parmentierlaan,38,,1150,Sint-Pieters-Woluwe,België
0402938196,Bergense Steenweg,944-948,,1070,Anderlecht,België
0402940077,Colignonplein,7,,1030,Schaarbeek,België
0402940869,Koning Albert II-laan,19,,1210,Sint-Joost-ten-Node,België
0402943740,Orbanlaan,209,13,1150,Sint-Pieters-Woluwe,België
0402969474,Industrielaan,28,,1070,Anderlecht,België
0402973335,Chemin des Moissons,10,,4400,Flémalle,België
0402981946,Paapsemlaan,18G,,1070,Anderlecht,België
0402982936,Louizalaan,335,,1050,Elsene,België
0403111313,Kroonlaan,371,,1050,Elsene,België
0403144074,Terhulpsesteenweg,207,,1170,Watermaal-Bosvoorde,België
0403217419,Louizalaan,367,,1050,Elsene,België
0403219595,Bourgetlaan,42,,1130,Brussel,België
0403263444,Auguste Reyerslaan,80,,1030,Schaarbeek,België
0403272154,Chaussée de Liège(JB),205,,5100,Namur,België
0403306501,de Meeûssquare,29,,1000,Brussel,België
0403344311,Bosstraat,50,4,3560,Lummen,België
0403353120,Stoofstraat,12,,1000,Brussel,België
0403353912,Rue Bernipré,30,,6041,Charleroi,België
0403361434,Charles Malisstraat,20,5,1080,Sint-Jans-Molenbeek,België
0403426265,Waterloose Steenweg,540,,1050,Elsene,België
0403598786,Leuvensesteenweg,38,,3191,Boortmeerbeek,België
0403600172,Industriepark,4,z/B,2220,Heist-op-den-Berg,België
0403649563,Koralenhoeve,10,,2160,Wommelgem,België
0403661144,Ringlaan,99,,2830,Willebroek,België
0403664312,Kastelsedijk,64,,2480,Dessel,België
0403676881,Wilsonstraat,84,,2860,Sint-Katelijne-Waver,België
0403704496,Spitsenstraat,34,,2030,Antwerpen,België
0403705486,Nijverheidsweg,1,,2240,Zandhoven,België
0403709149,Nijverheidsstraat,106,,2160,Wommelgem,België
0403720433,Ruiterijschool,14,,2930,Brasschaat,België
0403749434,Constant De Jongstraat,21,4,2170,Antwerpen,België
0403750226,Paalstraat,157,,2900,Schoten,België
0403792093,Tweemontstraat,258,,2100,Antwerpen,België
0403800508,Begoniastraat,8,,2160,Wommelgem,België
0403813275,Laageind,91,,2940,Stabroek,België
0403827529,Schaarbeekstraat(MEL),21,,9120,Beveren,België
0403829608,Bredabaan,153,,2930,Brasschaat,België
0403829707,Pauwelslei,186,,2930,Brasschaat,België
0403847919,Ambachtsstraat,32,,2390,Malle,België
0403855243,Leuvensesteenweg,38,,3191,Boortmeerbeek,België
0403866032,Ticheltij,43,2,2390,Malle,België
0403868408,Paaiestraat,9,,2500,Lier,België
0403877415,Rue du Charbonnage,21,,4020,Liège,België
0403907307,Rue des Anglais,6A,,4430,Ans,België
0403926905,"Parc Ind. des Hauts Sarts, 4e av",146-148,,4040,Herstal,België
0403930566,Source de la Lèche,43,,4053,Chaudfontaine,België
0403955510,Rue Joseph Dejardin,39,,4460,Grâce-Hollogne,België
0403955906,Rue du Rèwe,6,,4102,Seraing,België
0403966495,Rue du Ruisseau,45,,4100,Seraing,België
0403977284,Rue de Flémalle-Grande(FLG),33-35,,4400,Flémalle,België
0404000446,Aven Ackers(VER),10,,9130,Beveren,België
0404008958,Koningsbaan,51,,2560,Nijlen,België
0404032219,Autoweg,8,,1861,Meise,België
0404039048,Hazelaardreef,13,,2280,Grobbendonk,België
0404059438,Broechemsesteenweg,281,,2560,Nijlen,België
0404065772,Massenhovensesteenweg,126,,2520,Ranst,België
0404114173,Bouwensstraat,21,,2140,Antwerpen,België
0404114866,Ter Stratenweg,35,,2520,Ranst,België
0404121103,Baron Sadoinestraat,5,,2660,Antwerpen,België
0404157725,Beyntellus,1,,2360,Oud-Turnhout,België
0404174551,Cardijnlaan(HRT),74,,2200,Herentals,België
0404175937,Korspelsesteenweg,96,,3581,Beringen,België
0404202760,Visbeekstraat,26,,2300,Turnhout,België
0404206225,Dellestraat,25,,3550,Heusden-Zolder,België
0404207116,Everdongenlaan,6,,2300,Turnhout,België
0404219586,Sassenhout,61,,2290,Vorselaar,België
0404237107,Boulevard d'Avroy,19,,4000,Liège,België
0404257990,Rue de l'Informatique,3,,4460,Grâce-Hollogne,België
0404262049,Rue d'Ans,168,,4000,Liège,België
0404279568,Lange Lobroekstraat,173,,2060,Antwerpen,België
0404280459,Fotografielaan,24,,2610,Antwerpen,België
0404297978,Terbekehofdreef,50-52,,2610,Antwerpen,België
0404298077,Rijksweg,91,,2870,Puurs-Sint-Amands,België
0404339649,"Marche, Vieille Route de Liège",41,,6900,Marche-en-Famenne,België
0404357762,"Rue de Mayavaux, Vesqueville",12,,6870,Saint-Hubert,België
0404358950,"Marloie, Chaussée de Rochefort",29,,6900,Marche-en-Famenne,België
0404362118,Rue de l'Arbre,10,,6600,Bastogne,België
0404364096,"Rue de Virton,Jamoigne",58 A,,6810,Chiny,België
0404366571,Rue Paul-Dubois,58,,6920,Wellin,België
0404368155,"Aye, Rue Saumont",47,,6900,Marche-en-Famenne,België
0404399037,Rue Joseph Dejardin,39,,4460,Grâce-Hollogne,België
0404399235,Rue Churchill,26,,4624,Fléron,België
0404407846,Rue de Hermée,175,,4040,Herstal,België
0404418437,Sart d'Avette,110,,4400,Flémalle,België
0404420813,Boulevard d'Avroy,19,,4000,Liège,België
0404421704,Rue Joseph Dethier,31,,4340,Awans,België
0404466343,Oude Zoerlebaan,115,,2260,Westerlo,België
0404599272,Pareinpark(BEV),14,,9120,Beveren,België
0404612734,Mechelsesteenweg,271,2.1,2018,Antwerpen,België
0404626095,Industriepark-West,75,,9100,Sint-Niklaas,België
0404627679,Steenwinkelstraat,640,,2627,Schelle,België
0404634015,Voshol,6,A,9160,Lokeren,België
0404636389,Katwilgweg,3c,,2050,Antwerpen,België
0404637280,Sint-Jansweg(KAL),7,,9130,Beveren,België
0404640250,Quinten Matsijslei,36,,2018,Antwerpen,België
0404640646,Bredabaan,569,,2930,Brasschaat,België
0404641636,Antwerpsesteenweg,107,,2390,Malle,België
0404646287,Kruibeeksesteenweg,162,,2070,Zwijndrecht,België
0404652227,Firmin Lecharlierlaan,93,,1090,Jette,België
0404657571,Boombekelaan,9,1,2660,Antwerpen,België
0404662323,Antwerpsebaan,220,,2040,Antwerpen,België
0404667766,Brechtsebaan,116,,2900,Schoten,België
0404671528,Cleydaellaan,16,7,2630,Aartselaar,België
0404674003,Keizershoek,350A,,2550,Kontich,België
0404678159,Flor Alpaertsstraat,6,5,2600,Antwerpen,België
0404678357,Leopold de Waelplaats,26,,2000,Antwerpen,België
0404688255,Neerbroek,109,18,2070,Zwijndrecht,België
0404712209,Dokter Haubenlaan(M),3,,3630,Maasmechelen,België
0404729827,Noorderlaan,660,,2030,Antwerpen,België
0404779317,Ketenislaan(KAL),1,,9130,Beveren,België
0404837814,Mechelsesteenweg,271,2.1,2018,Antwerpen,België
0404941643,Herkenrodesingel,4B,,3500,Hasselt,België
0404982621,Rupelweg,1,,2850,Boom,België
0405011226,Katstraat,22,,9340,Lede,België
0405013602,Frank Van Dyckelaan,15,,9140,Temse,België
0405033101,Doornpark(BEV),120,,9120,Beveren,België
0405034881,Kapelanielaan,9,A,9140,Temse,België
0405062991,Stationsstraat(BEV),1,1,9120,Beveren,België
0405070119,Schaarbeekstraat(MEL),22,,9120,Beveren,België
0405073285,Baarbeek,14,,2070,Zwijndrecht,België
0405079225,Molenstraat(KIE),91,,9130,Beveren,België
0405092190,Booiebos,4,,9031,Gent,België
0405096150,Peter Benoitlaan,53,,8200,Brugge,België
0405103672,Franklin Rooseveltlaan,11,,1050,Brussel,België
0405122775,Lindelaan,7,,8310,Brugge,België
0405150291,Jan Bouckaertstraat,2,32,8790,Waregem,België
0405152073,Kapellestraat,117,,8020,Oostkamp,België
0405176027,Brugstraat(Oes),33,,8720,Dentergem,België
0405181965,Oostendesteenweg(FEER),199,,8480,Ichtegem,België
0405184836,Deinsesteenweg,131,2,8700,Tielt,België
0405190378,Prins Filiplaan,53,,8300,Knokke-Heist,België
0405197902,Brugsebaan,2,,8810,Lichtervelde,België
0405226111,Oude Gentweg,81,,8820,Torhout,België
0405248182,Handelsstraat,21,,8630,Veurne,België
0405250459,Driesstraat(Ide),131,,9506,Geraardsbergen,België
0405255310,Knippegroen,1,,9042,Gent,België
0405262931,Oudenburgsesteenweg,106,,8400,Oostende,België
0405265208,Watermolenstraat,5,,9700,Oudenaarde,België
0405273819,Ooststraat,22,2,8400,Oostende,België
0405291734,Esperantolaan,10A,,8400,Oostende,België
0405299355,Zandvoordestraat,453,,8400,Oostende,België
0405387150,Driesstraat,80,,8790,Waregem,België
0405390912,Bischoffsheimlaan,33,,1000,Brussel,België
0405403184,Nijverheidslaan,32,,8560,Wevelgem,België
0405418725,Elsegemplein (E.),23,,9790,Wortegem-Petegem,België
0405428326,Kalkhoevestraat,52,,8790,Waregem,België
0405434165,Avelgemstraat(Z),161,,8550,Zwevegem,België
0405435056,Blokellestraat(Z),113A,,8550,Zwevegem,België
0405455644,Kuipebosstraat,9,,8880,Ledegem,België
0405456337,Kruishoutemseweg,177,,8790,Waregem,België
0405461384,Begoniastraat,140,,9810,Nazareth,België
0405469304,Langemarkweg(KOM),S/N,,7780,Comines-Warneton,België
0405470490,Diksmuidseweg,61,,8900,Ieper,België
0405474846,Marmousetsstraat(KOM),5,,7780,Comines-Warneton,België
0405512062,Sappenleenstraat,26,,8970,Poperinge,België
0405523346,Koningin Astridlaan,97,6,8200,Brugge,België
0405524732,Winterbeeklaan,23,,3600,Genk,België
0405545815,Tieltstraat,138,,8760,Meulebeke,België
0405551258,Zandbergstraat,17,,8850,Ardooie,België
0405559572,Felix D'Hoopstraat,180,,8700,Tielt,België
0405566896,Ovenhoek,26,,8800,Roeselare,België
0405580655,Franklin Rooseveltlaan,180,,8790,Waregem,België
0405590256,Zinkstraat,13,,1500,Halle,België
0405598174,Den Triangel,2,,8610,Kortemark,België
0405619851,Route de Strée,44,,4577,Modave,België
0405628759,Rue du Panorama,27,,6041,Charleroi,België
0405645585,Olmkruidlaan,2-4,,1020,Brussel,België
0405652020,Kruisveld,34,,1840,Londerzeel,België
0405654592,Avenue Vésale,24,,1300,Wavre,België
0405694085,Chaussée de Louvain,479,,1380,Lasne,België
0405705864,Gontrode Heirweg,176,,9090,Melle,België
0405708636,Aragonstraat,1,,2500,Lier,België
0405767232,Picardstraat,11,505,1000,Brussel,België
0405780593,de Robianostraat,162,,2150,Borsbeek,België
0405791778,Hoge Mauw,580,,2370,Arendonk,België
0405800983,Burchtstraat,89,,9150,Kruibeke,België
0405817217,Houtemstraat,38,,8980,Zonnebeke,België
0405829588,Terhulpsesteenweg,185,,1170,Watermaal-Bosvoorde,België
0405832657,Leopold I straat,487,,1090,Jette,België
0405834142,Langerbruggekaai,3,,9000,Gent,België
0405845822,Oude Baan,3,,2800,Mechelen,België
0405848691,Chinheid,18,,4860,Pepinster,België
0405854631,Rue du Milan,1,,4950,Waimes,België
0405856512,Rue du Parc(TOU),4,,7500,Tournai,België
0405869378,Stationsstraat,80,,1640,Sint-Genesius-Rode,België
0405904418,Kruidtuinlaan,20,,1000,Brussel,België
0405925697,Sparrenweg,167,,3980,Tessenderlo,België
0405966675,Anspachlaan,1,,1000,Brussel,België
0405997458,Vredebaan,69,,2640,Mortsel,België
0406041406,Tragel,60,,9308,Aalst,België
0406075058,Tieboutslaan,5,,8573,Anzegem,België
0406085451,Grote Baan,572,,3530,Houthalen-Helchteren,België
0406101782,Stap,46,,2230,Herselt,België
0406122865,Ossenwegstraat,34A,,3440,Zoutleeuw,België
0406175721,Textielstraat,16,,8790,Waregem,België
0406177404,Lieven Bauwenslaan,6 b,,3900,Pelt,België
0406196309,Lindestraat,4,,8710,Wielsbeke,België
0406204821,Engelse Wandeling(Mar),74,,8510,Kortrijk,België
0406211155,Picardstraat,11,505,1000,Brussel,België
0406219766,Naamsestraat,37,,3000,Leuven,België
0406229268,Kluizenhof(SGW),25,,9170,Sint-Gillis-Waas,België
0406258071,Wijnegemsteenweg,24,,2970,Schilde,België
0406258269,Oeverstraat,6,,9160,Lokeren,België
0406282223,Rue Albert Mille(PEC),19,,7740,Pecq,België
0406301029,Franklin Rooseveltlaan,180,,8790,Waregem,België
0406317459,D'Herbouvillekaai,80,,2020,Antwerpen,België
0406325674,Het Voorhof,5,,2040,Antwerpen,België
0406412083,Vondelen(DE),52,,9450,Haaltert,België
0406419112,Kortrijksesteenweg,14,B,9830,Sint-Martens-Latem,België
0406425248,Antwerpsestraat,286,,2640,Mortsel,België
0406428317,Markt,137,,9800,Deinze,België
0406443757,'t Walletje,40,,8300,Knokke-Heist,België
0406457615,Egaalstraat,11,,8870,Izegem,België
0406500274,"Rue de Gaët, L'Ecluse",25,,1320,Beauvechain,België
0406501264,Rue de Maestricht(VIS),106,,4600,Visé,België
0406534225,Mechelsesteenweg,719,,3020,Herent,België
0406587475,Korte Keppestraat,7,52,9320,Aalst,België
0406696254,Merksemsesteenweg,194,,2100,Antwerpen,België
0406707241,Beekweg,5,,3700,Tongeren,België
0406718327,Rue de la Maladrie,34,,7062,Soignies,België
0406721889,Eekhoekstraat,89,A,9270,Laarne,België
0406723374,"Weiherstraße,Recht",61,,4780,Sankt Vith,België
0406745447,Rue du Fond du Maréchal(RH),20,,5020,Namur,België
0406750692,Industrieweg,150,,9030,Gent,België
0406754652,Overhammedreef,22,,9300,Aalst,België
0406761382,Provinciebaan,34,,2230,Herselt,België
0406768015,Zandvoordestraat,191,,8400,Oostende,België
0406770389,Ridder Walter Van Havrelaan,17,3,2900,Schoten,België
0406798697,Rue de la Terre à Briques(MAR),18,,7522,Tournai,België
0406857293,Vaartdijk(TIL),24,,3150,Haacht,België
0406914703,Lettenburgstraat,4,,8490,Jabbeke,België
0406922918,Steenwinkelstraat,640,,2627,Schelle,België
0406933212,Zemstbaan,70,,2800,Mechelen,België
0406947761,Rue de la Barge,16,,4000,Liège,België
0406956768,President Kennedypark(Kor),4b,,8500,Kortrijk,België
0407016948,Kadodderstraat,106,,2800,Mechelen,België
0407022391,Bosstraat,2,1,9550,Herzele,België
0407034764,Havinkbeekstraat(VER),3,,9130,Beveren,België
0407100981,Tiensesteenweg,386,,3000,Leuven,België
0407117809,Preflexbaan,167,,1740,Ternat,België
0407131071,Edmond Van Nieuwenhuyselaan,30,,1160,Oudergem,België
0407159577,Nijverheidsstraat,2,,8650,Houthulst,België
0407176801,Kroonlaan,284,,1050,Elsene,België
0407178680,Birminghamstraat,110,,1070,Anderlecht,België
0407187291,Schaliënhoevedreef,1A,,2800,Mechelen,België
0407194518,Bredabaan,44,,2930,Brasschaat,België
0407202931,Quai d'Arona,17,,4500,Huy,België
0407204713,Monnikenwerve,17-19,,8000,Brugge,België
0407209166,Augustijnenrei,15,8,8000,Brugge,België
0407326358,Winkelomseheide,249,,2440,Geel,België
0407423160,Zuiderdijk,18,,9230,Wetteren,België
0407549755,Vuurtorendok-Zuid,3,0803,8400,Oostende,België
0407549854,Lodewijk de Raetlaan,24,,8870,Izegem,België
0407568561,Magerstraat(Heu),17B,,8501,Kortrijk,België
0407647547,Kermtstraat,2,,3510,Hasselt,België
0407651804,Robert Tavernierlaan,1,,8700,Tielt,België
0407686347,Lijsterbessebomenlaan,11,,1180,Ukkel,België
0407715843,Rue Hector Ameye(H-G),22,,7110,La Louvière,België
0407716734,Brugsesteenweg,53A,,8450,Bredene,België
0407733461,"Libramont,Rue des Champs",15,,6800,Libramont-Chevigny,België
0407741478,Ondernemerslaan,10,,2960,Brecht,België
0407861937,Nieuwpoortse Steenweg,128,,8470,Gistel,België
0407924986,"Heppenbach,Lehmkaul",41,,4770,Amel,België
0407975466,Kanaalstraat,1,,8530,Harelbeke,België
0407980317,Kwikaard,110,,2980,Zoersel,België
0407980713,Kapellei,66,3,2980,Zoersel,België
0408062172,Rue Champeau,8,,6061,Charleroi,België
0408064350,Industriepark-West,62,,9100,Sint-Niklaas,België
0408065835,Bethaniënlei,15,,2980,Zoersel,België
0408075436,Industriëlaan,21/A,,7700,Mouscron,België
0408161350,Doorniksesteenweg(Kor),81 B,7,8500,Kortrijk,België
0408188569,Rue Champeau,20,,6061,Charleroi,België
0408224993,Daalhofstraat,45,,3840,Borgloon,België
0408242910,Tervurenlaan,148,25,1150,Sint-Pieters-Woluwe,België
0408268644,Vaartweg,3,,1651,Beersel,België
0408350895,Buissestraat,36,,9690,Kluisbergen,België
0408389992,Industrielaan,5,,9900,Eeklo,België
0408394645,Koningsbaan,86,,2580,Putte,België
0408394744,Fotografielaan,49-51,,2610,Antwerpen,België
0408411372,Rue Gabriel de Moriamé(ML),4,,5020,Namur,België
0408442848,Chemin du Fond des Coupes,6,,5150,Floreffe,België
0408443145,"Rue de Botrange,Sourbrodt",44,,4950,Waimes,België
0408465614,Stasegemsesteenweg(Kor),17,,8500,Kortrijk,België
0408470760,"Rue des Cinq-Français, Nismes",4,,5670,Viroinval,België
0411092334,Stationsstraat,22,,3570,Alken,België
0411114110,Simon De Heuvellaan,8,,2110,Wijnegem,België
0411509533,Meersbloem-Leupegem,22,,9700,Oudenaarde,België
0411516065,Rue Mitoyenne,897,,4840,Welkenraedt,België
0411516758,Alverenbergbaan,1,,9308,Aalst,België
0411524973,Rue Charles Richet,4,,7180,Seneffe,België
0411555360,Leierwaarde,52,,9660,Brakel,België
0411556053,Avenue des Combattants,332,,1470,Genappe,België
0411577631,Baasrodestraat (BAA),97,,9200,Dendermonde,België
0411578522,Steenweg Deinze,150,,9810,Nazareth,België
0411581985,Goudvinkendreef,11,,2900,Schoten,België
0411584262,Kachtemsestraat,192,,8800,Roeselare,België
0411592477,Nieuwstraat,96,,8560,Wevelgem,België
0411621775,Quinten Metsysplein,12,1,3000,Leuven,België
0411630683,Centrum-Zuid,2049,,3530,Houthalen-Helchteren,België
0411668196,Zandvoordestraat,465,,8400,Oostende,België
0411680668,Everhoek,2,,2520,Ranst,België
0411879816,Dellestraat,8,,3560,Lummen,België
0411906045,Pittemstraat,93,,8760,Meulebeke,België
0411920396,Rue de la Gare,49,,5555,Bièvre,België
0411927821,Heideweg,39,,2980,Zoersel,België
0411960483,Rue Moister,28,,4624,Fléron,België
0411961473,Karreweg,54,,9870,Zulte,België
0411969490,Slachthuisstraat,14,,9900,Eeklo,België
0411979487,Molenstraat(Wak),35,,8720,Dentergem,België
0412003045,Fabriekstraat,2,,3670,Oudsbergen,België
0412012151,Rue du Mont,164A,,6870,Saint-Hubert,België
0412016111,Felix Moonsstraat,13,,3290,Diest,België
0412042241,Kapellestraat,117,,8020,Oostkamp,België
0412059859,Leopoldplein,37,,2500,Lier,België
0412068173,Pittemstraat,56,,8760,Meulebeke,België
0412100639,Ninoofsesteenweg,305,,1500,Halle,België
0412137756,Moorstraat,20,1,2870,Puurs-Sint-Amands,België
0412138944,Thonissenlaan,63,1,3500,Hasselt,België
0412379860,Jagersborgweg,1007,,3680,Maaseik,België
0412384216,Lichterveldestraat,15,,8740,Pittem,België
0412421333,Mechelsesteenweg,388,,2500,Lier,België
0412424895,Vaartkaai,51,,2170,Antwerpen,België
0412449938,Flandria,20,,8750,Wingene,België
0412452908,Bisschopsweyerstraat,17,,3570,Alken,België
0412458054,Meulebekesteenweg(Den),6,,8720,Dentergem,België
0412548423,Tieltstraat,17,,8720,Dentergem,België
0412554955,Stadsomvaart,1,5,3500,Hasselt,België
0412589104,Siemenslaan,7,,3650,Dilsen-Stokkem,België
0412597418,Pauwendreef,7,A,2900,Schoten,België
0412605930,Geallieerdenlaan(D),65,,7711,Mouscron,België
0412618204,Misweg,3A,,2220,Heist-op-den-Berg,België
0412636911,Ouderdomseweg,10-12,,8970,Poperinge,België
0412661061,Sint-Bartholomeusstraat,10,,8900,Ieper,België
0412708472,Koning Albert II-laan,19,,1210,Sint-Joost-ten-Node,België
0412738958,Froissartstraat,119,5,1040,Etterbeek,België
0412750044,Noorderlaan,147,,2030,Antwerpen,België
0412783696,Smisstraat,54,,2800,Mechelen,België
0412815271,De Béjarlaan,1B,,1120,Brussel,België
0412820023,Eekloseweg,85,2,9910,Aalter,België
0412822003,Vennebosstraat(Oes),9,,8720,Dentergem,België
0412830218,Leenstraat,61,,9890,Gavere,België
0412862781,Kachtemsestraat,290,,8800,Roeselare,België
0412870996,Sint-Ursmarusstraat (BAA),23,,9200,Dendermonde,België
0412889507,Avenue du Progrès,28,,4432,Ans,België
0412899603,Mechelseweg,87,,1880,Kapelle-op-den-Bos,België
0412909105,Waterloolaan,16,,1000,Brussel,België
0412917518,Rue de la Fagne d'Hi,1,,6600,Bastogne,België
0412921377,Prins Karellaan,50,,8300,Knokke-Heist,België
0412930483,Hoge Mauw,300,,2370,Arendonk,België
0412945034,Waregemseweg (W.),62B,,9790,Wortegem-Petegem,België
0412947608,Delleurlaan,15,,1170,Watermaal-Bosvoorde,België
0412949784,Schrieksesteenweg,117,,2221,Heist-op-den-Berg,België
0412965127,de Selliers de Moranvillelaan,33,,1082,Sint-Agatha-Berchem,België
0412968293,Kapellei,157,,2980,Zoersel,België
0412983933,Wuustwezelseweg,95,,2990,Wuustwezel,België
0413041539,Aachener Strasse,22,,4731,Raeren,België
0413059454,Pauline Van Pottelsberghelaan,22,,9051,Gent,België
0413070441,"Rue de l'Adoption, Mar.",61,,5660,Couvin,België
0413071827,Kwalestraat,74,,9320,Aalst,België
0413093504,Industrieterrein Kanaal-Noord,1423,,3960,Bree,België
0413125572,Karel de Clercqstraat,1,,9042,Gent,België
0413136460,Rue de la Légende,59,,4141,Sprimont,België
0413136856,Wondelgemkaai,8,,9000,Gent,België
0413164966,Tragelweg,4,,9230,Wetteren,België
0413165560,Noordsterstraat,14,,8380,Brugge,België
0413198422,Fortsesteenweg,30,,2860,Sint-Katelijne-Waver,België
0413214159,Noordstraat,10,,9220,Hamme (Vl.),België
0413224849,Kleine Dries(D),12,,8600,Diksmuide,België
0413252563,Heirweg,175,,8710,Wielsbeke,België
0413255335,Jagersborgweg,15,,3680,Maaseik,België
0413268795,Koningin Astridlaan,58A,,2550,Kontich,België
0413280772,Belliardstraat,40,6,1040,Etterbeek,België
0413352434,Laarstraat,16,b12,2610,Antwerpen,België
0413387868,Knokbeeklaan,98,,8930,Menen,België
0413457055,Beneluxpark(Kor),29,21,8500,Kortrijk,België
0413457451,Nijverheidslaan,54,,8560,Wevelgem,België
0413487937,Place de l'Eglise,14,,7340,Colfontaine,België
0413516839,Durmakker,8,,9940,Evergem,België
0413517136,Nieuwlandlaan,6,,3200,Aarschot,België
0413538912,Haltstraat,92,,3900,Pelt,België
0413552570,Baeckelmansstraat,132,,2830,Willebroek,België
0413572564,Winkelomseheide,221,,2440,Geel,België
0413582957,Rue d'Aix la Chapelle,189,,4701,Eupen,België
0413595231,Bruyelstraat,3,4,8531,Harelbeke,België
0413599486,Rue du Château,53,,1480,Tubize,België
0413607406,Kruisstraat(O),12,,9290,Berlare,België
0413630071,Gemeenschappenlaan,100,,1200,Sint-Lambrechts-Woluwe,België
0413662141,Washingtonstraat,48,,1050,Elsene,België
0413665903,Ekkelgaarden,16,,3500,Hasselt,België
0413695201,Harensesteenweg,299,,1800,Vilvoorde,België
0413696090,Petrusstraat(KIE),4,,9130,Beveren,België
0413699951,Boulevard du Nord(F-E),37,,6140,Fontaine-l'Evêque,België
0413717371,Rue de Lantin,155,B,4000,Liège,België
0413753894,Industrieweg-Noord,1161,,3660,Oudsbergen,België
0413759834,Oude Heirweg,17,,8851,Ardooie,België
0413779828,Beekstraat,28,,9870,Zulte,België
0413787548,Kortrijksesteenweg,14B,,9830,Sint-Martens-Latem,België
0413796060,Oudenburgweg,45,,8490,Jabbeke,België
0413825754,"Libramont, Quartier Haynol",1.,,6800,Libramont-Chevigny,België
0413835553,Evenbroekveld,1,,9420,Erpe-Mere,België
0413836939,Vaarnewijkstraat,+14,,8530,Harelbeke,België
0413860891,Schriekstraat,139,,2223,Heist-op-den-Berg,België
0413888211,Kluizenhof(SGW),25,,9170,Sint-Gillis-Waas,België
0413901473,Veedijk,46,,2300,Turnhout,België
0413906324,Leenstraat,137,,9870,Zulte,België
0413925427,Plezierstraat,8,A,9810,Nazareth,België
0413951260,Groenendaallaan,399,,2030,Antwerpen,België
0413970759,Koewacht(STE),92,A,9190,Stekene,België
0413973234,Raverschootstraat,159,,9900,Eeklo,België
0413988278,Rue du Montys,10,,4557,Tinlot,België
0414011737,Nijverheidsstraat,26,,2260,Westerlo,België
0414016289,Tenbosstraat,90,,1050,Elsene,België
0414044203,Zavelvennestraat,36,,3500,Hasselt,België
0414103886,Berchemweg,95,,9700,Oudenaarde,België
0414216823,Kazandstraat,55,,8800,Roeselare,België
0414220880,Papegemstraat,52,,9340,Lede,België
0414238696,Gentstraat,68,1,9800,Deinze,België
0414240181,Noorderlaan,9,,2030,Antwerpen,België
0414272845,Chaussée Impériale,150,,6060,Charleroi,België
0414291354,Lapseheide,40,,3980,Tessenderlo,België
0414293433,Stationsplein,1,,9100,Sint-Niklaas,België
0414296502,Krommewege,80,,9990,Maldegem,België
0414299074,Morsheck,2,,4760,Büllingen,België
0414303727,"Industriepark ""De Bruwaan""",91A,,9700,Oudenaarde,België
0414308180,Ringlaan,11,,9900,Eeklo,België
0414334114,Chaussée de Marche(NN),856,,5100,Namur,België
0414334213,Genkersteenweg,243,,3500,Hasselt,België
0414343418,Waterven(Heu),4,,8501,Kortrijk,België
0414431510,Spijker,65,,2910,Essen,België
0414435468,Steenweg op Mol,177,,2360,Oud-Turnhout,België
0414451702,Chaussée de Nivelles,83,,1420,Braine-l'Alleud,België
0414460412,Plaanstraat,1,,9810,Nazareth,België
0414466548,Fonteynestraat(Den),3,,8720,Dentergem,België
0414468429,Sentestraat(Heu),99,,8501,Kortrijk,België
0414502576,Rue Haute Claire,20,,4041,Herstal,België
0414510593,Sint-Baafskerkstraat,1,,8200,Brugge,België
0414560677,Antoon Catriestraat,18,,9031,Gent,België
0414627884,Herkenrodesingel,87,,3500,Hasselt,België
0414631052,Neerhofstraat,27,1,9600,Ronse,België
0414671535,Rue Grosse Pierre(PLX),9,,4122,Neupré,België
0414684403,Industriepark-West,59,,9100,Sint-Niklaas,België
0414709444,Rue de Fontenelle,27,,1390,Grez-Doiceau,België
0414716669,Potaardestraat,74,18,2845,Niel,België
0414735277,Knaptandstraat,4,,9100,Sint-Niklaas,België
0414737554,Patrijzenlaan (STG),2,,9200,Dendermonde,België
0414751115,Avenue Landas,5,,1480,Tubize,België
0414789222,Ijzeren Bareel,32,,8587,Spiere-Helkijn,België
0414795358,Meerdegatstraat,165,,3570,Alken,België
0414807434,Tombroekstraat(Rol),22,,8510,Kortrijk,België
0414815055,Rue Ste Brigitte (Thu),100,,7971,Beloeil,België
0414818916,Albertstraat,21,,8980,Zonnebeke,België
0414829705,Prins Boudewijnlaan,7C,201,2550,Kontich,België
0414857518,Polenlaan(STE),100,,9190,Stekene,België
0414862961,Diestsesteenweg(LIN),60,,3210,Lubbeek,België
0414885133,Ternatsestraat,105,31,1790,Affligem,België
0414892358,Avenue du Parc,25,,4650,Herve,België
0414920072,Schaliehoevestraat,11,A,2220,Heist-op-den-Berg,België
0414933732,Meldertsestraat,8,,3545,Halen,België
0414964713,Palingbrug,8,,2000,Antwerpen,België
0414977777,Klein-Heidestraat,25,,3670,Oudsbergen,België
0414985893,Leuvensesteenweg,613,,1930,Zaventem,België
0414992526,Buitenheide,4,,3930,Hamont-Achel,België
0415003414,Dorpsdam(VRA),16A,,9120,Beveren,België
0415035977,Rue Libon,35,,4800,Verviers,België
0415037165,Mijnwerkerslaan,35,,3550,Heusden-Zolder,België
0415038353,Sint-Denijsstraat,157,,1190,Vorst,België
0415042709,Handelsstraat,12,,8630,Veurne,België
0415061515,Taunusweg,49,,3740,Bilzen,België
0415135056,Wijerstraat,6,,3520,Zonhoven,België
0415168314,Industrieweg,160,,9030,Gent,België
0415173361,Misweg,3,B,2220,Heist-op-den-Berg,België
0415188902,Foreestelaan,86,201,9000,Gent,België
0415235917,Victor Gilsoullaan,53,,1200,Sint-Lambrechts-Woluwe,België
0415238984,Schoon Uitzichtlaan,62,6,1180,Ukkel,België
0415254228,Damstraat,19F,,9230,Wetteren,België
0415255614,Albert I laan,234,,8620,Nieuwpoort,België
0415256901,Industrieweg,74,,9032,Gent,België
0415284813,Normandiëlaan,13,,8420,De Haan,België
0415331630,Ricksteenweg,38,,8750,Wingene,België
0415336974,Rue Bernipré,30,,6041,Charleroi,België
0415355186,Rue de la Rés. Pic au Vent(TOU),9,,7500,Tournai,België
0415486929,Rue de l'Innovation(RH),7,,5020,Namur,België
0415487721,Rue de l'Innovation(RH),7,,5020,Namur,België
0415500488,Industrieweg,8,,2490,Balen,België
0415501676,Koning Albertstraat,2,,1760,Roosdaal,België
0415521472,Vlaamsekaai,90,,2000,Antwerpen,België
0415544337,Onze-Lieve-Vrouwstraat,5,,3500,Hasselt,België
0415547307,Felix Aertgeertsstraat,28,,3128,Tremelo,België
0415551859,Gorsem-Dorp,2,,3803,Sint-Truiden,België
0415556215,Vronemeers,12,,1730,Asse,België
0415566707,Felix Aertgeertsstraat,21,,3128,Tremelo,België
0415571061,Elslo,165,,9940,Evergem,België
0415598181,Normandiëlaan,13,,8420,De Haan,België
0415600161,Brusselse steenweg,2,A,9300,Aalst,België
0415607287,Kambergen,38,,3560,Lummen,België
0415617878,Bruyelstraat,3,4,8531,Harelbeke,België
0415623818,Rue du Château d'Eau(N),6,,4121,Neupré,België
0415636090,Molenstraat(Heu),106,A,8501,Kortrijk,België
0415637773,Emiel Vlieberghlaan,12,,3900,Pelt,België
0415665685,Hellebeemden,7,,3500,Hasselt,België
0415668556,Vantegemstraat,27,,9230,Wetteren,België
0415699240,Industriepark,1211,,3545,Halen,België
0415712108,Stationsstraat,15,,9550,Herzele,België
0415721115,Zavelstraat,9,,1000,Brussel,België
0415763576,Haltstraat,50,,3900,Pelt,België
0415776939,"Rue de la Besace, Our",14,,6852,Paliseul,België
0415781194,Hoogveld,27,,9200,Dendermonde,België
0415790894,Rue de l'Eglise,24,RC1,4840,Welkenraedt,België
0415792478,Zavelberg,7,A,3980,Tessenderlo,België
0415796141,Rue Gueule-du-Loup,1C,,6600,Bastogne,België
0415826627,Nijverheidslaan,31,,8540,Deerlijk,België
0415874137,Ambachtenlaan,3,,8560,Wevelgem,België
0415874533,Kortrijksesteenweg,1052,D,9051,Gent,België
0415893933,Dendermondse steenweg,75,,9300,Aalst,België
0415897693,Coebergerstraat,49B,,2018,Antwerpen,België
0415904623,Bautersemstraat,47,,2550,Kontich,België
0415906504,Berckmansstraat,64,,1060,Sint-Gillis (bij-Brussel),België
0415911749,Brasschaatsebaan,20,2,2970,Schilde,België
0415911848,Van-Doornelaan,2,,2440,Geel,België
0415915511,Rue des Anglais,6,A,4430,Ans,België
0415927585,Quai de Rome,89,4A,4000,Liège,België
0415928278,Chaussée Romaine,79,,4360,Oreye,België
0415953915,Steenweg,250,,9810,Nazareth,België
0415973612,Terhulpsesteenweg,166,,1170,Watermaal-Bosvoorde,België
0416025080,Leuken,14,,3920,Lommel,België
0416042896,Rue des Carrières,19,B,4160,Anthisnes,België
0416093277,Karnemelkstraat,2-4,P5,9060,Zelzate,België
0416147321,Bleyveldstraat,11,,3320,Hoegaarden,België
0416160682,Chaussée de Bruxelles,165,6,1410,Waterloo,België
0416168701,Gentse steenweg,150,1.2,9300,Aalst,België
0417010522,Souverainestraat,84,,9810,Nazareth,België
0417029625,Molendamstraat,4,,8210,Zedelgem,België
0417047639,Schildekenstraat,20,,9940,Evergem,België
0417053082,Leuvensebaan(SAR),317,,3040,Huldenberg,België
0417056250,Rue de Namur,52,,5600,Philippeville,België
0417072581,"Rue de la Vieille-Sambre,Morn.",162,,5190,Jemeppe-sur-Sambre,België
0417074462,Anthonis De Jonghestraat,6,B,9100,Sint-Niklaas,België
0417100196,Anspachlaan,1,,1000,Brussel,België
0417102374,Westerring,13,,9700,Oudenaarde,België
0417131474,Roterijstraat(S.B.V.),10,,8710,Wielsbeke,België
0417159980,Dendermondsestraat,32,,1083,Ganshoren,België
0417186211,Industrielaan,27,6,9320,Aalst,België
0417217190,Tieltsestraat,50,,8531,Harelbeke,België
0417235008,Roberts-Jonesstraat,72,,1180,Ukkel,België
0417270442,Prinsendreef,15,,2950,Kapellen,België
0417288357,Rue du Travail,9,,4460,Grâce-Hollogne,België
0417316665,Parkstraat,15,,9620,Zottegem,België
0417329929,Driehoekstraat,270,,2180,Antwerpen,België
0417336263,Burgstraat,125,,9000,Gent,België
0417420001,Kruisstraat(O),12,,9290,Berlare,België
0417421088,Rue Herman,30,,1315,Incourt,België
0417435639,Brugsesteenweg,37,,8450,Bredene,België
0417469192,Leurshoek(BEV),95,,9120,Beveren,België
0417494037,Haute Rue,6,,1473,Genappe,België
0417514724,Luikersteenweg,254,,3500,Hasselt,België
0417523830,Verstrekenstraat(SAR),25,,3040,Huldenberg,België
0417528283,Rue de Froidchapelle(Cer),12,,5630,Cerfontaine,België
0417577773,Parc Industriel,4,,4400,Flémalle,België
0417596381,Steverlyncklaan,11,,8900,Ieper,België
0417611328,Kiewitstraat,182,A,3500,Hasselt,België
0417644683,Achterstenhoek,34,,2275,Lille,België
0417648643,Nieuwstraat,37,,1730,Asse,België
0417660818,Beemdenstraat,44,,2930,Brasschaat,België
0417696846,Gapaardstraat,28,,8850,Ardooie,België
0417727530,Ardooisesteenweg,305,,8800,Roeselare,België
0417751185,Molenweidestraat(HEU),24,,9070,Destelbergen,België
0417769003,Baaistraat,68,,3470,Kortenaken,België
0417774743,Puursheide,1,,2870,Puurs-Sint-Amands,België
0417803051,Kluizenmeersen(SGW),16,,9170,Sint-Gillis-Waas,België
0417838980,Vlamingveld,75,,8490,Jabbeke,België
0417842247,Blokstraat,46,,2500,Lier,België
0417860756,Kroonstraat,170,,3020,Herent,België
0417879661,Avenue de Namur,14,,5590,Ciney,België
0417887084,Leuvensesteenweg,287,,3070,Kortenberg,België
0417897576,B.A. Guilbertlaan,3,,8700,Tielt,België
0417904209,Ten Beukeboom(App),11,,9400,Ninove,België
0417906385,Veldstraat,111,,3500,Hasselt,België
0417907771,Simarstrasse,36,,4700,Eupen,België
0417918263,Marie Curiesquare,50,,1070,Anderlecht,België
0417923411,Nijverheidsstraat,49,,8970,Poperinge,België
0417937267,Lode De Boningestraat,39,A,8560,Wevelgem,België
0417995170,Retiesebaan,171,,2460,Kasterlee,België
0418006454,Frédéric Pelletierstraat,33,,1030,Schaarbeek,België
0418006751,Rue Fernand Bourgeois,6,,5352,Ohey,België
0418010216,Lauwbergstraat,230,,8930,Menen,België
0418024567,Rue Crufer,8,,4970,Stavelot,België
0418096031,Staatsbaan,278,,9870,Zulte,België
0418125230,Sint-Baafskerkstraat,1,,8200,Brugge,België
0418150766,Steenweg op Asse(P.E.),19,,7850,Enghien,België
0418162545,Bredabaan,875,,2930,Brasschaat,België
0418169077,Oostmalsesteenweg,220,,2310,Rijkevorsel,België
0418172443,Dam(Kor),10,,8500,Kortrijk,België
0418204810,Jagersborgweg,1007,,3680,Maaseik,België
0418210550,Rue de Ciply (C.),454,,7033,Mons,België
0418221240,Turnhoutseweg,67,2,2340,Beerse,België
0418243709,Zandbergen,6,,2480,Dessel,België
0418266374,Heiveldstraat,189,,9040,Gent,België
0418381883,Schoolstraat,22,A,3440,Zoutleeuw,België
0418384358,Nieuwe Dreef,17,,9160,Lokeren,België
0418456218,Rue Charles Richet,4,,7180,Seneffe,België
0418469084,Rue du Travail,7,,4460,Grâce-Hollogne,België
0418472450,Brugmannlaan,27,A,1060,Sint-Gillis (bij-Brussel),België
0418489573,Waterlaatstraat,37,,2970,Schilde,België
0418520356,Rue de la Vieille Espérance,24,,4100,Seraing,België
0418547080,Narcissenlaan,8,,2970,Schilde,België
0418547179,Kortrijkstraat,142,,8770,Ingelmunster,België
0418548268,Brusselsesteenweg,328,,3090,Overijse,België
0418555097,Zavelstraat(STE),34,,9190,Stekene,België
0418573113,Boskant,28,,2242,Zandhoven,België
0418575487,Lambermontlaan,310,,1030,Schaarbeek,België
0418580833,Bredabaan,197,,2930,Brasschaat,België
0418598451,Evenbroekveld,30,,9420,Erpe-Mere,België
0418619039,Laageind,5,,2940,Stabroek,België
0418622702,Louizalaan,230,,1050,Elsene,België
0418635271,Deurnevoetweg,2,,2900,Schoten,België
0418650515,Rue du Pont(AMA),30,,4540,Amay,België
0418680407,Rue Albert Mille(PEC),19,,7740,Pecq,België
0418686840,Basseilles,1,,5340,Gesves,België
0418702478,Toekomstlaan(HRT),41,A,2200,Herentals,België
0418703072,Bosstraat,18,,3950,Bocholt,België
0418732667,"Rue Saint-Donat,Warêt",42,,5310,Eghezée,België
0418751275,Rue Joseph Vanderick(CO),179,,6180,Courcelles,België
0418851641,Gestichtstraat,45,,9000,Gent,België
0418859163,Paalsteenstraat,36,,3500,Hasselt,België
0418909346,Geleenlaan,1,,3600,Genk,België
0418954480,Nijverheidslaan,3,,9880,Aalter,België
0418972197,Steenweg op Blaasveld(HEF),56a,,2801,Mechelen,België
0418972989,Kouter (E.),3,,9790,Wortegem-Petegem,België
0419049896,Meuleberg,2,,8573,Anzegem,België
0419062170,Dorpsstraat,19,3.1,3590,Diepenbeek,België
0419072959,Brusselstraat,120,,1702,Dilbeek,België
0419091567,Charleroise Steenweg,227,,1060,Sint-Gillis (bij-Brussel),België
0419099287,Markegemstraat(Wak),59,,8720,Dentergem,België
0419114828,Kumtichstraat(KMT),331,,3300,Tienen,België
0419116412,Beverlostraat,19,,3970,Leopoldsburg,België
0419127694,Oostendestraat,278,,8820,Torhout,België
0419127892,Rue de l'Echelle,308,,4100,Seraing,België
0419152341,Hasseltkouter(Oph),57,,9500,Geraardsbergen,België
0419156202,Congresstraat,35,,1000,Brussel,België
0419180550,Rue de Maestricht(VIS),106,,4600,Visé,België
0419201534,Humaniteitslaan,114,,1070,Anderlecht,België
0419225486,Rue Modeste Carlier,59,,7390,Quaregnon,België
0419230535,Noordlaan,18,,8520,Kuurne,België
0419265474,Rue des Bayards,147,,4000,Liège,België
0419320310,Puursesteenweg(BOR),384,,2880,Bornem,België
0419320805,Buntjesstraat,39,,3583,Beringen,België
0419326149,Vicus Pontrave,25,,9250,Waasmunster,België
0419351982,Puursesteenweg(BOR),391,,2880,Bornem,België
0419367325,Koningin Astridlaan,25,,2800,Mechelen,België
0419424733,Kerkstraat,244,,1851,Grimbergen,België
0419491841,Schaapveld (STG),22,,9200,Dendermonde,België
0419493326,Rue de l'Avenir,63,,4460,Grâce-Hollogne,België
0419510251,Rue Robert Gérard,3,,1480,Tubize,België
0419511043,Bredabaan (Centrum),47-49,,2990,Wuustwezel,België
0419522723,Duisburgsesteenweg,6,,3090,Overijse,België
0419596462,Otterstraat,38,9,2300,Turnhout,België
0419627938,Rozenstraat,5,,9810,Nazareth,België
0419657137,Holstraat,9,2,1840,Londerzeel,België
0419685148,Edingsesteenweg,89,A,1755,Gooik,België
0419703756,Kambalastraat,16,,2030,Antwerpen,België
0419732757,Vanderveldenlaan,11,,1652,Beersel,België
0419746714,Ginstlaan,16,,1640,Sint-Genesius-Rode,België
0419765520,Industrielaan,21,,8790,Waregem,België
0419774527,Staatsbaan(LUB),187,,3210,Lubbeek,België
0419784227,Steenovenstraat,12,,8700,Tielt,België
0419795115,Rue Grondal,8,,4890,Thimister-Clermont,België
0419803924,Centrum-Zuid,1544,,3530,Houthalen-Helchteren,België
0419813624,Rue Bon Espoir,17,,4041,Herstal,België
0419820057,Iepersestraat,120,,8890,Moorslede,België
0419832430,Statiestraat (Dp),99,,2920,Kalmthout,België
0419832826,Chemin Vert,12B,,7080,Frameries,België
0419844605,Oude Weg,39,,9991,Maldegem,België
0419876871,Henri Lebbestraat,17,,8790,Waregem,België
0419877168,Kartuizersweg,1,,2550,Kontich,België
0419887264,'s Graventafelstraat,1,H,8980,Zonnebeke,België
0419889640,Kluizenhof(SGW),20,,9170,Sint-Gillis-Waas,België
0419892808,Georges Henrilaan,389,,1200,Sint-Lambrechts-Woluwe,België
0419904981,Nijverheidsstraat,7,,3990,Peer,België
0419921809,Rue Commandant Naessens,30,,4340,Awans,België
0419928737,Korte Lozanastraat,28,,2018,Antwerpen,België
0419931014,Beukenstraat,160,,9255,Buggenhout,België
0419955560,Rue Albert 1er,72,,4610,Beyne-Heusay,België
0419962686,Nijverheidslaan,4a,,8560,Wevelgem,België
0419966250,"Rue de Longuyon,Ruette",37,,6760,Virton,België
0419970804,Brugstraat,3,,8581,Avelgem,België
0419985155,Baron Albert d'Huartlaan,268,,1950,Kraainem,België
0419989907,Avenue du Gris Moulin,9,,1310,La Hulpe,België
0419999409,Industrieweg,11,,2320,Hoogstraten,België
0419999805,Gasdam(BEV),10,,9120,Beveren,België
0420004654,Rue du Cura,37,,1400,Nivelles,België
0420027321,Dennenlaan,15,,3271,Scherpenheuvel-Zichem,België
0420031081,Rue de la Closière,14,,1300,Wavre,België
0420057609,Vredelaan,2,6,3530,Houthalen-Helchteren,België
0420104921,Kernenergiestraat,65,,2610,Antwerpen,België
0420108681,Kleine Heidestraat,3,,9080,Lochristi,België
0420178561,Chemin des Cèdres,37,1,4000,Liège,België
0420185192,Nieuwebosstraat,5,,9000,Gent,België
0420191528,Georges Lecointelaan,50,,1180,Ukkel,België
0420249629,De Maneschijn,8,,2460,Kasterlee,België
0420252597,Route du Vieux Chêne,7,,6661,Houffalize,België
0420259230,Acacialaan,42,,3970,Leopoldsburg,België
0420259725,Wijtschotbaan,3,8,2900,Schoten,België
0420300604,Linteweversstraat(KOM),7,,7780,Comines-Warneton,België
0420333068,Rue de la Buse,3,,4950,Waimes,België
0420343659,Dorpweg,35,,8377,Zuienkerke,België
0420348015,Kasteelstraat,13,,8980,Zonnebeke,België
0420415816,Ijskelderstraat,16,,1060,Sint-Gillis (bij-Brussel),België
0420418883,Groot Eyssel,39,A,2328,Hoogstraten,België
0420424526,Pontstraat(KRU),2,,9770,Kruisem,België
0420483221,Rijkswachtdreef,23,,9600,Ronse,België
0420488169,Avenue du Parc Industriel,11,,4041,Herstal,België
0420519249,Vaartstraat,150,,2490,Balen,België
0420578340,Briscol,4,,6997,Erezée,België
0420588337,Menensesteenweg,28,,8890,Moorslede,België
0420644260,Jagershoek,14,,8570,Anzegem,België
0420692661,D'Helst,10,,9280,Lebbeke,België
0420759670,Rue des Marchands,42,,6200,Châtelet,België
0420765214,Rue Maurice Duchêne,52B,,4340,Awans,België
0420769073,Pannenbakkersstraat(M),4,,8552,Zwevegem,België
0420773726,Kasteelstraat,19,,3800,Sint-Truiden,België
0420820345,Industriepark,3,,3290,Diest,België
0420827075,Rue Coron du Bois,29,,7370,Dour,België
0420832520,Priorijdreef,25,,1160,Oudergem,België
0420836775,Avenue de la Porallée,34,,4920,Aywaille,België
0420838458,Joseph Stevensstraat,7,,1000,Brussel,België
0420993460,Rue du Curé,10,,1331,Rixensart,België
0421042653,Rue des Ruelles,49,,7950,Chièvres,België
0421046118,Gontrode Heirweg,142,,9090,Melle,België
0421056412,Avenue Zénobe Gramme,2,,1300,Wavre,België
0421077790,Ambachtenlaan,5,,9080,Lochristi,België
0421099566,Lijsterstraat,26,,3530,Houthalen-Helchteren,België
0421117481,Les Plénesses,44,,4890,Thimister-Clermont,België
0421134705,Ijzerlaan,17,,3270,Scherpenheuvel-Zichem,België
0421154697,rue du Chenia,10,C,7170,Manage,België
0421167367,Rue de Battice,156,,4880,Aubel,België
0421188846,Hamonterweg,139,,3930,Hamont-Achel,België
0421189440,Rue de la Platinerie,12,,7340,Colfontaine,België
0421205375,Chaussée de Nivelles,121,,7181,Seneffe,België
0421261003,Bouvriestraat,3,,8583,Avelgem,België
0421301880,"Zoning de Jumet,4ème rue",33,,6040,Charleroi,België
0421312867,Rue du Réemploi(RH),4,,5020,Namur,België
0421313659,Avenue de Jassans,58,,1342,Ottignies-Louvain-la-Neuve,België
0421324250,Industrieweg,21,,2330,Merksplas,België
0421401256,Koralenhoeve,35,,2160,Wommelgem,België
0421413332,Allée des Foires,6,,5590,Ciney,België
0421421547,Avenue de Philippeville,161,,6001,Charleroi,België
0421452825,Rue Saint-Vincent,18,,4020,Liège,België
0421455102,Rue L. Maréchal,11,,4360,Oreye,België
0421496969,Lobulckstraat,21,,9880,Aalter,België
0421515181,Brugsesteenweg,512,,8800,Roeselare,België
0421519933,Industrieterrein Kolmen,1107,,3570,Alken,België
0421523990,Industrieweg,-,1413,3540,Herk-de-Stad,België
0421550815,Avenue Lorette,4,,1380,Lasne,België
0421559723,Stoofstraat (W.),8,,9790,Wortegem-Petegem,België
0421561505,Jan de Malschelaan,8,,9140,Temse,België
0421570314,Burchtstraat,89,,9150,Kruibeke,België
0421581893,Steenweg op Asse(P.E.),136,,7850,Enghien,België
0421608124,Rue de Mortagne(F),5,,7910,Frasnes-lez-Anvaing,België
0421619309,Markt,48A,,2590,Berlaar,België
0421707005,Frankrijkstraat,6,,9140,Temse,België
0421759364,Groeningenlei,44,,2550,Kontich,België
0421830135,Centrum-Zuid,2067,,3530,Houthalen-Helchteren,België
0421842211,Turnovatoren,16,1,2300,Turnhout,België
0421855770,Dorpsstraat,4,,8420,De Haan,België
0421859928,Harelbekestraat,17,a,8570,Anzegem,België
0421879031,Rue de la Verte Reine(PER),17,,7600,Péruwelz,België
0421948911,Rue Mabîme,73,,4432,Ans,België
0421960391,Morkhovenseweg(WIE),45,3,2222,Heist-op-den-Berg,België
0421961480,Kleine Amer,15,,2870,Puurs-Sint-Amands,België
0421968707,Autolei,228,,2160,Wommelgem,België
0421994738,Peerderbaan,119,,3940,Hechtel-Eksel,België
0422007903,Ploeghoeveweg,1,,2500,Lier,België
0422099854,Rabotstraat,113,,9940,Evergem,België
0422139743,Avenue de la Résistance,530,,4630,Soumagne,België
0422166863,Zeedijk,127,,8430,Middelkerke,België
0422178939,Gemeenteplein,20,90,8790,Waregem,België
0422195171,Haachtsesteenweg,1739,,1130,Brussel,België
0422202891,Rue de Courrière,43,,5340,Gesves,België
0422218630,Rue Champeau,24,,6061,Charleroi,België
0422303257,Terbermenweg,64,,3540,Herk-de-Stad,België
0422314937,Steenweg,88,,3540,Herk-de-Stad,België
0422317016,Eugène Bekaertlaan,51,,8790,Waregem,België
0422373137,Rue du Fayais,4,,4950,Waimes,België
0422391349,Flanders-Fieldweg,36,,8790,Waregem,België
0422391547,"Marche,Rue de la Plaine",21,,6900,Marche-en-Famenne,België
0422450539,Zandvoordeschorredijkstraat,287,,8400,Oostende,België
0422454596,Rue du Bois de Huy(AMP),5 D,,4540,Amay,België
0422457665,Elbestraat,12,,8760,Meulebeke,België
0422483302,Bevrijdingsstraat,32,,3945,Ham,België
0422516657,Rue de Leuze,407,,5300,Andenne,België
0422525466,Rue Latérale(TR),9,,6183,Courcelles,België
0422548727,Rue des Dizeaux,2,,1360,Perwez,België
0422555754,Doenaertstraat(Mar),2,,8510,Kortrijk,België
0422564662,Denen,75,,9080,Lochristi,België
0422568325,Rue Noël Heine,17,,4340,Awans,België
0422595049,Avenue Thomas Edison,131,,1402,Nivelles,België
0422625733,Rue Ernest-Solvay,311,,4000,Liège,België
0422646420,Avenue Albert-Ier,66,,4030,Liège,België
0422660375,Vorstse Baan,89,,2431,Laakdal,België
0422661563,Rue de Valenciennes(B),357,,7300,Boussu,België
0422664929,Dumolinlaan,11,a,8510,Kortrijk,België
0422672550,"Avenue des Lilas,Ham",5,,5190,Jemeppe-sur-Sambre,België
0422672748,Ruisbroekse Steenweg,85,,1190,Vorst,België
0422740252,Industrielaan,6,,2960,Brecht,België
0422746685,Koornbloemstraat,148,,2610,Antwerpen,België
0422748071,Zandstraat,10,,3460,Bekkevoort,België
0422807558,Rue de la Gare,24,,4850,Plombières,België
0422829928,Kuringersteenweg,509,,3511,Hasselt,België
0422834777,Rue d'Incourt(Dong.),27,,1370,Jodoigne,België
0422844972,Rue Saint Jean,27,,6150,Anderlues,België
0422878131,Meersbloem-Melden,16,,9700,Oudenaarde,België
0422881396,Kerckxstraat,10,,1050,Elsene,België
0422899115,Industrielaan,4,,2250,Olen,België
0422971567,Chrysantenstraat,59B,,9820,Merelbeke,België
0422971765,Diestersteenweg,182,,3850,Nieuwerkerken (Limb.),België
0423234655,Rue de la Croix du Maïeur(S-B),1,,7110,La Louvière,België
0423257916,Engelselei,84,,2140,Antwerpen,België
0423264646,Lieven Bauwensstraat,42,,8200,Brugge,België
0423278504,Goede Herderstraat,30,,1140,Evere,België
0423331853,Oude Weg,39,,9991,Maldegem,België
0423343236,Doornpark(BEV),82,,9120,Beveren,België
0423359567,Avenue Léopold III(PER),38,,7134,Binche,België
0423384412,Allée de Wésomont,1,,4190,Ferrières,België
0423397674,Haachtsesteenweg,1704,,1130,Brussel,België
0423408463,Industriepark,4,,9820,Merelbeke,België
0423418955,Leopold III-laan,2,905,8400,Oostende,België
0423464386,Meiboomstraat,25,,2820,Bonheiden,België
0423464980,Rue sur les Vignes,7,,5300,Andenne,België
0423476462,Villalaan,101,,1190,Vorst,België
0423664425,Rue de la Croix Limont,11,,5590,Ciney,België
0423668977,Industriepark-Drongen,11,A,9031,Gent,België
0423691941,Graaf Jansdijk,485,,8300,Knokke-Heist,België
0423710351,Léon Bekaertlaan,2,,9880,Aalter,België
0423735590,Hoge Mauw,710,,2370,Arendonk,België
0423737867,"Rue du Chenois,Ochamps",62,,6890,Libin,België
0423750537,Rue Lambert-Lombard,3,,4000,Liège,België
0423758455,Westlaan,13,,8560,Wevelgem,België
0423760930,Rue Cochaute,9,,5333,Assesse,België
0423784882,Gentsesteenweg,30,,9750,Kruisem,België
0423796265,Quinten Matsijslei,36,,2018,Antwerpen,België
0423806163,Kielstraat,3,,8380,Brugge,België
0423900589,Léon Debattylaan,18,,1070,Anderlecht,België
0423933748,De Breukeleer,16,,1730,Asse,België
0423958294,Rue Jules Borbouse(B.V.),4,,5170,Profondeville,België
0423965422,Rue des Martyrs,115,,4420,Saint-Nicolas,België
0424101717,Bellensbos,7,,2260,Westerlo,België
0424107259,Stationsplein,27,3A,9880,Aalter,België
0424131807,Coghensquare,45,,1180,Ukkel,België
0424169815,Pannewegel,50,,8790,Waregem,België
0424182483,Steenweg op Mechelen,338,,1950,Kraainem,België
0424211583,Meulebeeksesteenweg,22,,8700,Tielt,België
0424342534,Waregemseweg (W.),146,,9790,Wortegem-Petegem,België
0424343425,Abeelstraat,26,,9600,Ronse,België
0424349363,Marolleweg(KRU),1,,9770,Kruisem,België
0424400041,Louizalaan,131A,,1050,Elsene,België
0424420035,Rue de Bruxelles,20,,4130,Esneux,België
0424457350,Patriottenstraat,40,,2600,Antwerpen,België
0424509414,Louizalaan,143,4,1050,Elsene,België
0424571968,Simon De Heuvellaan,8,,2110,Wijnegem,België
0424573651,Drève Micheline,23,,1470,Genappe,België
0424593843,Rue Marcel Louis,34,,1315,Incourt,België
0424602058,Filliersdreef,20,,9800,Deinze,België
0424718755,Rue de Tertre(B),48,,7331,Saint-Ghislain,België
0424724792,Nijverheidsstraat,5,,8740,Pittem,België
0424737264,Gare de Momalle(MOM),15,,4347,Fexhe-le-Haut-Clocher,België
0424746271,Rue Zénobe Gramme,33 A,,4821,Dison,België
0424760327,Monnikenwerve,187,,8000,Brugge,België
0424813973,Gewerbestrasse,11,,4700,Eupen,België
0424842083,Gontrode Heirweg,186,,9090,Melle,België
0424850991,Parc Industriel(W-B),27,,1440,Braine-le-Château,België
0424856733,Industriepark,9,,8730,Beernem,België
0424876232,Kleinmijlveld,11,,2547,Lint,België
0424882269,Rue Delvaux,21,,4340,Awans,België
0424890880,Avenue de la Closeraie,74,,4000,Liège,België
0424896028,Mezenlei,5,,2950,Kapellen,België
0424903055,Baarbeek,14,,2070,Zwijndrecht,België
0424905926,Brugmannlaan,27,,1060,Sint-Gillis (bij-Brussel),België
0424912359,Dendermondesteenweg,388,,9070,Destelbergen,België
0424939281,Rue du Tilloi(H),9,,6220,Fleurus,België
0424954129,Rue de France,79,,5580,Rochefort,België
0424986296,Rue des Bouchers St. Brice(TOU),11,,7500,Tournai,België
0424998768,Stationsstraat,30,,8460,Oudenburg,België
0425015891,Grendelbaan,54,,3590,Diepenbeek,België
0425023019,Den Triangel,2,,8610,Kortemark,België
0425040637,Jules Lahayestraat,205,,1090,Jette,België
0425041231,Drève Richelle,161,L /59,1410,Waterloo,België
0425043904,Chemin de la Vieille Sambre(FW),63,,5020,Namur,België
0425058453,Place du Martyr,21,,4800,Verviers,België
0425061522,Lokerenbaan,237,,9240,Zele,België
0425085870,Assestraat,17,,1790,Affligem,België
0425118831,Rue des Trois Ruisseaux,3,,1450,Chastre,België
0425122987,Koning Leopoldlaan,7,,2870,Puurs-Sint-Amands,België
0425147634,Albert I laan,27,,8620,Nieuwpoort,België
0425152483,Industrieweg,1019,,3540,Herk-de-Stad,België
0425154067,Rue de Jeneffe,5,,4460,Grâce-Hollogne,België
0425167232,Steenstraat,44,,8851,Ardooie,België
0425174853,Marktweg(Goe),94,,9500,Geraardsbergen,België
0425187127,Liefdadigheidslaan,9,,1860,Meise,België
0425206131,Lepelstraat(RN),22,,8600,Diksmuide,België
0425207022,Dooren,111,d,1785,Merchtem,België
0425219690,Voshol,6,,9160,Lokeren,België
0425229093,"Rue des Boussines, Vaux-Chavanne",54,,6960,Manhay,België
0425236617,Boomsesteenweg,58,,2630,Aartselaar,België
0425241862,Rue du Mont d'Orcq(FRY),1,,7503,Tournai,België
0425242852,Vredestraat,53,,8790,Waregem,België
0425243248,Avenue de Guéménée,42,,1420,Braine-l'Alleud,België
0425256215,Rue André Dumont,6,,1435,Mont-Saint-Guibert,België
0425282246,Mannebeekstraat,23,,8790,Waregem,België
0425342624,Edmond Van Nieuwenhuyselaan,30,,1160,Oudergem,België
0425353908,Picardstraat,7,100,1000,Brussel,België
0425359549,Hagenbroeksesteenweg,284,,2500,Lier,België
0425371724,Finlandstraat,19,,9940,Evergem,België
0425385283,Lievensveld,7,,9600,Ronse,België
0425410029,Zeepakker,20,,2390,Malle,België
0425474563,Kapelanielaan,9 C,,9140,Temse,België
0425497824,George Bergmannlaan,38,2,1050,Elsene,België
0425498814,Drève Richelle,161,87,1410,Waterloo,België
0425504257,Rue des Anglais,6,,4430,Ans,België
0425540384,Kolisstraat,3,,3670,Oudsbergen,België
0425547512,Rue des Spinettes,13,,4140,Sprimont,België
0425561665,Lammerdries,12,,2440,Geel,België
0425639859,Kasteelstraat,24,,9620,Zottegem,België
0425644017,Lange Molensstraat,8,,1800,Vilvoorde,België
0425646490,Notstraat,40,,1730,Asse,België
0425693012,Brugsesteenweg,52,,8531,Harelbeke,België
0425693606,Hulsterweg (C),19,,3980,Tessenderlo,België
0425702910,Koning Albert II-laan,19,,1210,Sint-Joost-ten-Node,België
0425789715,Brusselstraat,197,,1702,Dilbeek,België
0425790309,Chaussée de Louvain,479,,1380,Lasne,België
0425814261,Rue du Tige,13,,4040,Herstal,België
0425815647,Karel De Roosestraat,15,,9820,Merelbeke,België
0425830295,Parc Artisanal de Blegny,2-4,,4671,Blégny,België
0425852467,Rue des Hiercheuses,82,,6001,Charleroi,België
0425998561,Stalsbosstraat,16,,3660,Oudsbergen,België
0426023901,Meersstraat,9,,1730,Asse,België
0426068639,Industrieweg (H),Z/N,,3980,Tessenderlo,België
0426091207,Avenue Maurice-Destenay,13,,4000,Liège,België
0426100214,Verrekijker,12,,8750,Wingene,België
0426116842,Industrielaan,20,,9320,Aalst,België
0426154454,Rue du Préat,96,,6043,Charleroi,België
0426221166,Rue Albert 1er,20,,4280,Hannut,België
0426239279,Humaniteitslaan,415,,1190,Vorst,België
0426319453,Stapelplein,70,100,9000,Gent,België
0426332024,Herenweg,6,,8300,Knokke-Heist,België
0426352810,Ruisbroeksesteenweg,235,,1601,Sint-Pieters-Leeuw,België
0426362609,Chaussée Bara,339,,1410,Waterloo,België
0426430311,Ambachtsschoolstraat,27,2,3500,Hasselt,België
0426444365,Drevendaal,30,,2860,Sint-Katelijne-Waver,België
0426449612,Avenue Gaston Biernaux(PEC),23,,7740,Pecq,België
0426452877,Rue Colo-Hugues,67,,1420,Braine-l'Alleud,België
0426454065,Rue des Bugranes(NN),2,,5100,Namur,België
0426509196,Reibos(NDW),9,,2200,Herentals,België
0426511572,Kroonstraat,170,,3020,Herent,België
0426515037,"Rue de la Taillette, Achet",17,,5362,Hamois,België
0426516225,Molenweideplein,21,,3620,Lanaken,België
0426518304,Rue Sainte-Walburge,484,,4000,Liège,België
0426552550,Val d'Away,19,,6760,Virton,België
0426552748,Rue Maurice Bertrand,530,,5300,Andenne,België
0426579967,Rotkreuzstrasse,31,,4700,Eupen,België
0426588578,Warandenstraat,8,,7700,Mouscron,België
0426590261,Esserstraat(Z),12,,8550,Zwevegem,België
0426598080,Hoge-Barrierestraat,3,,8800,Roeselare,België
0426607384,Kukkelbergstraat,37,,3830,Wellen,België
0426666970,Bexstraat,58,,2018,Antwerpen,België
0426669841,Rue de la Litorne,7A,,4950,Waimes,België
0426725566,Rue de Favray,9,,4367,Crisnée,België
0426734474,Grote Heerweg,69,,8791,Waregem,België
0426792377,de Gerlachestraat,3,,3500,Hasselt,België
0426807225,Donk,45,,2400,Mol,België
0426816133,Dagsterrestraat(SGW),21,,9170,Sint-Gillis-Waas,België
0426818014,Kasteellaan,92,,7700,Mouscron,België
0426823556,Tunnelweg,8,,2845,Niel,België
0426825437,Groene Dreef(Rol),32,,8510,Kortrijk,België
0426869977,Jan Van Rijswijcklaan,138,,2018,Antwerpen,België
0426922140,Bredabaan,1165,,2900,Schoten,België
0426955990,Lendeleedsestraat,293,,8870,Izegem,België
0426972917,Meerbos,4,,9260,Wichelen,België
0426978360,Beaulieustraat,2-4,,1830,Machelen (Brab.),België
0426993901,Chapelle des Anges,38,,4890,Thimister-Clermont,België
0427027553,Rue du Fond des Fourches,23C,,4041,Herstal,België
0427051309,Kapelstraat,136,,3550,Heusden-Zolder,België
0427100896,Laageind,5,,2940,Stabroek,België
0427121088,Haltstraat,50,,3900,Pelt,België
0427122969,Diepenbekerweg,11,,3500,Hasselt,België
0427173350,Haverheidelaan,10,,9140,Temse,België
0427173944,Puursesteenweg(BOR),397A,,2880,Bornem,België
0427206608,Marcel Habetslaan,30,,3600,Genk,België
0427218682,Blokkestraat,12,,8530,Harelbeke,België
0427223830,Zwaanhofweg,10,,8900,Ieper,België
0427229966,Rue Ma Campagne,33,,1410,Waterloo,België
0427238082,Bosdel,32A,,3600,Genk,België
0427275595,Geraardsbergse steenweg,21A,,9860,Oosterzele,België
0427284406,Honderdweg,11,,9230,Wetteren,België
0427285889,Edestraat,5,,8020,Oostkamp,België
0427294502,Rue Albert Bataille,6,,4053,Chaudfontaine,België
0427302321,Industrielaan,18,,3730,Hoeselt,België
0427303806,Generaal Capiaumontstraat,96,,1040,Etterbeek,België
0427320929,Kieleberg,31,,3740,Bilzen,België
0427377941,Industriestraat,21,,9240,Zele,België
0427390512,"Bonzeler, Oudler",6,,4790,Burg-Reuland,België
0427406348,Vennestraat,19,,9051,Gent,België
0427414266,Baron Joseph Ryelandtstraat,3,,8000,Brugge,België
0427444554,Hekkestraat,14,A,9308,Aalst,België
0427450492,Rue de l'Abbaye,20-22,,5000,Namur,België
0427460390,Legen Heirweg,43,,9890,Gavere,België
0427507506,Industrielaan,16,,3900,Pelt,België
0427561053,Industrieweg,7,,2630,Aartselaar,België
0427572139,Rue de l'Informatique,2,,4460,Grâce-Hollogne,België
0427628755,Edward Vlietinckstraat,17,,8400,Oostende,België
0427649739,Brusselsesteenweg,217,,9230,Wetteren,België
0427653501,Avenue du Marouset,2,,7090,Braine-le-Comte,België
0427692103,Route de Wallonie (G.),4,,7011,Mons,België
0427698239,Flamingostraat,12,,8400,Oostende,België
0427702692,Souverainestraat,38,,9800,Deinze,België
0427759013,Nijverheidslaan,64,,8540,Deerlijk,België
0427768515,Industrielaan,13,,9620,Zottegem,België
0427804048,R de la résilience territoriale,21,,5060,Sambreville,België
0427903424,Slachthuislaan,80,,2060,Antwerpen,België
0427912926,Pachecolaan,11,,1000,Brussel,België
0427948855,Fazantendreef,12,,8490,Jabbeke,België
0427972314,Hoogstraat,203,A,9472,Denderleeuw,België
0427983202,Rue d'Edimbourg,19,,6040,Charleroi,België
0427995573,Antwerpsesteenweg,219,,2950,Kapellen,België
0428010124,Groendreef,40,,9880,Aalter,België
0428022297,François Laurentplein,6,,9000,Gent,België
0428033680,Tjammelsstraat (W.),49,,9790,Wortegem-Petegem,België
0428072579,Kwadamstraat,43,,9910,Aalter,België
0428076440,Waregemseweg (W.),146,,9790,Wortegem-Petegem,België
0428083863,Groenstraat,73,,3730,Hoeselt,België
0428086239,Avenue de Norvège,16,,4960,Malmedy,België
0428101382,Rue des Fours-à-Chaux,101,,7080,Frameries,België
0428107124,Astridlaan(Sch),179,,9500,Geraardsbergen,België
0428144439,Vijvestraat,39,,8720,Dentergem,België
0428147112,Rue de l'Europe(PER),40A,,7600,Péruwelz,België
0428164829,Rozenbergstraat,9,,3050,Oud-Heverlee,België
0428178091,Krekebekestraat,3,,8610,Kortemark,België
0428191850,Rue Castiau(PER),9,,7600,Péruwelz,België
0428229264,Winterkoninkjestraat,28,,1170,Watermaal-Bosvoorde,België
0428249555,Ten Beukeboom(App),27,,9400,Ninove,België
0428267074,Vosmeer (STG),14,,9200,Dendermonde,België
0428280437,Drabstraat,250B,,2640,Mortsel,België
0428306468,Rue de l'Ile-Monsin,78,,4020,Liège,België
0428322207,Reutenbeek,9,,3090,Overijse,België
0428344872,Chaussée de Charleroi,81,,5190,Jemeppe-sur-Sambre,België
0428360710,"Rue de Botrange,Sourbrodt",79,,4950,Waimes,België
0428369024,Oude Pittemstraat,48,,8760,Meulebeke,België
0428371992,Rue des Phlox(NN),9,,5100,Namur,België
0428372388,Acaciastraat,18B,,2440,Geel,België
0428416039,Rue de l'Industrie,26,,4420,Saint-Nicolas,België
0428429501,Frans van Kalkenlaan,9,8,1070,Anderlecht,België
0428469289,Stokstraat(KRU),26,,9770,Kruisem,België
0428484335,Rue Vandervelde(FLM),193,bis,6141,Fontaine-l'Evêque,België
0428496411,Biezeweg,13,B,9230,Wetteren,België
0428502745,Chaussée Maieur Habils,49,,1430,Rebecq,België
0428539664,Kolmenstraat,135,,3512,Hasselt,België
0428545505,Sur les Thiers,13 B,,4890,Thimister-Clermont,België
0428552136,Rue de Trez,7,,4682,Oupeye,België
0428572823,Kapellestraat,2,3,9800,Deinze,België
0428577177,Neerlandweg,26,,2610,Antwerpen,België
0428583414,Rue de Saint-Donat,18,,5640,Mettet,België
0428596181,Kasteelhoekstraat,1,,1820,Steenokkerzeel,België
0428612118,Rue de l'Expansion,25 A,,4400,Flémalle,België
0428619442,Genkersteenweg,195,1.01,3500,Hasselt,België
0428629439,Mechelsesteenweg,271,2.1,2018,Antwerpen,België
0428661806,Ottergemsesteenweg,415,,9000,Gent,België
0428670912,August De Smedtstraat,55,,1702,Dilbeek,België
0428678335,Heiveldekens,8,,2550,Kontich,België
0428764546,Rodenonnenstraat,11,202,8000,Brugge,België
0428785629,Blakstraat,20,,9900,Eeklo,België
0428788993,Kragendijk,38,,8300,Knokke-Heist,België
0428801861,Orbanlaan,209,13,1150,Sint-Pieters-Woluwe,België
0428822746,Weebroekweg,10,,3071,Kortenberg,België
0428827397,A.J. Slegerslaan,71,4,1200,Sint-Lambrechts-Woluwe,België
0428837097,Waregemseweg (W.),146A,,9790,Wortegem-Petegem,België
0428843433,Schoonzichtstraat,33,,9051,Gent,België
0428917667,Route Charlemagne,25,,5660,Couvin,België
0428918360,Chaussée d'Alsemberg,147,,1420,Braine-l'Alleud,België
0429023971,Manebruggestraat,296,,2150,Borsbeek,België
0429058219,Rue de l'Egalité,223,,4630,Soumagne,België
0429110083,Stasegemsesteenweg(Kor),1L,,8500,Kortrijk,België
0429241133,Rue Grand'Rue,30,,1341,Ottignies-Louvain-la-Neuve,België
0429248358,Brugsesteenweg,107A,,8420,De Haan,België
0429275478,Trou du Loup,12,,4910,Theux,België
0429276567,Industrielaan,38,,1740,Ternat,België
0429366144,Gerard Mercatorstraat,8,,3920,Lommel,België
0429370302,Gorsem-Dorp,64,,3803,Sint-Truiden,België
0429410981,Boerenkrijgstraat,133,,2800,Mechelen,België
0429524017,Westlaan,466,,8800,Roeselare,België
0429561431,Woumenweg,57,,8600,Diksmuide,België
0429594885,Chaussée de Mons,307,,7060,Soignies,België
0429608743,Tiensesteenweg,193,,3800,Sint-Truiden,België
0429619631,Vlinderstraat,22,,3550,Heusden-Zolder,België
0429667933,Oude Heirbaan,9 A,,9620,Zottegem,België
0429711186,Rue de Frameries (C.),24B,,7033,Mons,België
0429718512,Linde,8,,4841,Welkenraedt,België
0429759191,Smederijstraat,6,,2960,Brecht,België
0429813136,Nijverheidsstraat,49,,3580,Beringen,België
0429847085,Louizalaan,209A,7,1050,Elsene,België
0429867475,Kortrijksesteenweg,12,,9830,Sint-Martens-Latem,België
0429874997,Puttestraat,18,,3390,Tielt-Winge,België
0429954379,Lodewijk Van Berckenlaan,16,,2600,Antwerpen,België
0429956953,Galgebergstraat,10,,3000,Leuven,België
0429975759,Edith Cavellstraat,242,,1180,Ukkel,België
0430013470,rue du Chenia,1,,7170,Manage,België
0430040194,Manta,13-14,,9250,Waasmunster,België
0430058210,"Parc Ind. des Hauts Sarts, 4e av",25,,4040,Herstal,België
0430077313,Centrum-Zuid,2607,,3530,Houthalen-Helchteren,België
0430108688,Haachtsesteenweg,1704,,1130,Brussel,België
0430110668,Ourthe,72A,,6672,Gouvy,België
0430224296,Rue de Hermée,246,,4040,Herstal,België
0430345349,Terhulpsesteenweg,185,,1170,Watermaal-Bosvoorde,België
0430388802,Langestraat,95,,1741,Ternat,België
0430393750,Gen. Notermanlaan(Odk),22,,8670,Koksijde,België
0430431659,Handzameplein,11,,8610,Kortemark,België
0430471053,Paperrestraat(O),2,,8553,Zwevegem,België
0430503321,Duivenmelkersstraat,109,,1070,Anderlecht,België
0430600420,Zuidstraat,135-137,,1000,Brussel,België
0430629619,Waterloosesteenweg,1387,,1180,Ukkel,België
0430631203,Brug-Noord,2,A,9880,Aalter,België
0430634765,Rue Vinâve(ENG),129,,4480,Engis,België
0430692470,Route de Saint-Gérard(WP),155,,5100,Namur,België
0430714246,Rue sous les Vignes,4,,4690,Bassenge,België
0430726124,Venakkerstraat,10,1,2400,Mol,België
0430740970,Rue de l'Olive(L.L),39,,7100,La Louvière,België
0430747997,Avenue Reine Astrid,120,,1410,Waterloo,België
0430776208,Spinnerslaan,2,,9160,Lokeren,België
0430792341,Boektveldstraat,19,,3600,Genk,België
0430817481,Eienbroekstraat,22,,8340,Damme,België
0430862221,Zwartenhoekstraat,2,,8660,De Panne,België
0430871426,Diestersteenweg,348,,3680,Maaseik,België
0430896962,Bayauxlaan,67,,8300,Knokke-Heist,België
0430969416,Kouter (E.),3,,9790,Wortegem-Petegem,België
0431012768,Lammerdries-Zuid,14,B,2250,Olen,België
0431057310,Pathoekeweg,400,,8000,Brugge,België
0431065525,Kleemstraat,27,,9041,Gent,België
0431091457,Kattebroekstraat,171,,1700,Dilbeek,België
0431096110,Rue de Hottleux,102,,4950,Waimes,België
0431156783,Rue Marie Curie,14,,4431,Ans,België
0431168265,Jetse Laan,354,,1090,Jette,België
0431216171,Rue de Herve,159,,4651,Herve,België
0431236858,Winkelomseheide,221,,2440,Geel,België
0431424722,Chaussée de Marche(JB),389,,5100,Namur,België
0431424821,Slagmanstraat,16A,,9080,Lochristi,België
0431481041,Hébronval,25,,6690,Vielsalm,België
0431505092,Rijkswachtdreef,23,,9600,Ronse,België
0431506280,Centrum-Zuid,1055,,3530,Houthalen-Helchteren,België
0431597936,Terlindenweg,13,,1730,Asse,België
0431599520,Statiestraat(Den),56,,8720,Dentergem,België
0431617336,Trekweg Rechteroever,22,,9700,Oudenaarde,België
0431733241,Noordzeestraat,201,,8380,Brugge,België
0431745317,Kortrijksesteenweg,23,4,9830,Sint-Martens-Latem,België
0431757787,Stee(WAT),24,,9988,Sint-Laureins,België
0431785897,Valerius de Saedeleerlaan,12,,8420,De Haan,België
0431811435,Antwerpsebaan,26,,2040,Antwerpen,België
0431863202,Kolmenstraat,1307,,3570,Alken,België
0431944661,"Zoning de Jumet,4ème rue",1,,6040,Charleroi,België
0431969506,"Parc Industriel, Dochamps",9,A,6960,Manhay,België
0431998111,Baarbeek,8,,2070,Zwijndrecht,België
